[
    {
        "Altitude(m)": 624792.7378623288,
        "Argument of Periapsis(deg)": 0.0,
        "Eccentricity": 0.0,
        "Inclination(deg)": 60.0,
        "Latitude(deg)": -59.1469838594672,
        "Longitude(deg)": 89.02642131017785,
        "Mean Anomaly(deg)": -98.18179999999994,
        "RAAN(deg)": 295.00000000000006,
        "Satellite Name": "Test1 1314",
        "Satellite Number": 1314,
        "Semi-Major Axis(m)": 6980739.136638005,
        "Time(s)": 0
    },
    {
        "Altitude(m)": 624842.1299223503,
        "Argument of Periapsis(deg)": 0.00010418945913296404,
        "Eccentricity": 0.0,
        "Inclination(deg)": 60.0,
        "Latitude(deg)": -59.28906725301709,
        "Longitude(deg)": 90.15592204807294,
        "Mean Anomaly(deg)": -97.56169385453809,
        "RAAN(deg)": 294.99957995086027,
        "Satellite Name": "Test1 1314",
        "Satellite Number": 1314,
        "Semi-Major Axis(m)": 6980739.136638005,
        "Time(s)": 10
    }
]